{
 "type": "FeatureCollection",
 "_readme": [
  "HAND-EDITABLE mask overrides: properties.mask = land|water, WGS84 lon/lat.",
  "Seeded from surveyed OSM coastal structures (data/gis/osm_structures.json,",
  "ODbL). Edit freely or add features; the engine re-rasterizes at load.",
  "Companion structures.kml holds the full local inventory for Google Earth."
 ],
 "features": [
  {
   "type": "Feature",
   "properties": {
    "mask": "land",
    "name": "North Jetty",
    "source": "OSM way 640430599 (ODbL, openstreetmap.org/copyright)"
   },
   "geometry": {
    "type": "Polygon",
    "coordinates": [
     [
      [
       -70.803724,
       42.818822
      ],
      [
       -70.803688,
       42.818822
      ],
      [
       -70.803658,
       42.818828
      ],
      [
       -70.803631,
       42.818837
      ],
      [
       -70.803596,
       42.818833
      ],
      [
       -70.803543,
       42.818841
      ],
      [
       -70.803527,
       42.818858
      ],
      [
       -70.80351,
       42.818879
      ],
      [
       -70.803507,
       42.818905
      ],
      [
       -70.803508,
       42.818925
      ],
      [
       -70.80351,
       42.818973
      ],
      [
       -70.803549,
       42.819017
      ],
      [
       -70.803588,
       42.819029
      ],
      [
       -70.803625,
       42.819046
      ],
      [
       -70.803666,
       42.819072
      ],
      [
       -70.803706,
       42.819073
      ],
      [
       -70.803734,
       42.819071
      ],
      [
       -70.803769,
       42.819081
      ],
      [
       -70.803799,
       42.819075
      ],
      [
       -70.803833,
       42.81906
      ],
      [
       -70.803966,
       42.819074
      ],
      [
       -70.804061,
       42.819069
      ],
      [
       -70.804126,
       42.819064
      ],
      [
       -70.804167,
       42.819073
      ],
      [
       -70.804215,
       42.819083
      ],
      [
       -70.804262,
       42.819084
      ],
      [
       -70.804282,
       42.819086
      ],
      [
       -70.804313,
       42.819087
      ],
      [
       -70.804338,
       42.819099
      ],
      [
       -70.804363,
       42.819098
      ],
      [
       -70.804378,
       42.819092
      ],
      [
       -70.804422,
       42.819082
      ],
      [
       -70.804449,
       42.819089
      ],
      [
       -70.804478,
       42.819091
      ],
      [
       -70.80452,
       42.819098
      ],
      [
       -70.804552,
       42.819104
      ],
      [
       -70.804584,
       42.819117
      ],
      [
       -70.804635,
       42.819102
      ],
      [
       -70.804743,
       42.819106
      ],
      [
       -70.804766,
       42.819113
      ],
      [
       -70.804789,
       42.819122
      ],
      [
       -70.804806,
       42.819135
      ],
      [
       -70.804836,
       42.819146
      ],
      [
       -70.804896,
       42.81916
      ],
      [
       -70.804944,
       42.819177
      ],
      [
       -70.805004,
       42.819176
      ],
      [
       -70.805038,
       42.819167
      ],
      [
       -70.805085,
       42.819173
      ],
      [
       -70.805127,
       42.819178
      ],
      [
       -70.805161,
       42.819174
      ],
      [
       -70.805202,
       42.819174
      ],
      [
       -70.805229,
       42.819174
      ],
      [
       -70.80529,
       42.819175
      ],
      [
       -70.805346,
       42.819195
      ],
      [
       -70.805363,
       42.819196
      ],
      [
       -70.805416,
       42.819198
      ],
      [
       -70.805461,
       42.819183
      ],
      [
       -70.805491,
       42.819191
      ],
      [
       -70.805524,
       42.819203
      ],
      [
       -70.805587,
       42.819209
      ],
      [
       -70.805619,
       42.819206
      ],
      [
       -70.80564,
       42.81922
      ],
      [
       -70.805671,
       42.819215
      ],
      [
       -70.805711,
       42.81921
      ],
      [
       -70.80578,
       42.819213
      ],
      [
       -70.805822,
       42.81923
      ],
      [
       -70.805852,
       42.819239
      ],
      [
       -70.805917,
       42.819247
      ],
      [
       -70.805943,
       42.819254
      ],
      [
       -70.805969,
       42.81925
      ],
      [
       -70.805989,
       42.819238
      ],
      [
       -70.806016,
       42.819249
      ],
      [
       -70.806035,
       42.819256
      ],
      [
       -70.806084,
       42.819257
      ],
      [
       -70.8061,
       42.819266
      ],
      [
       -70.806118,
       42.819276
      ],
      [
       -70.806148,
       42.819279
      ],
      [
       -70.806164,
       42.81927
      ],
      [
       -70.806178,
       42.81926
      ],
      [
       -70.806204,
       42.819262
      ],
      [
       -70.806227,
       42.81927
      ],
      [
       -70.806248,
       42.819279
      ],
      [
       -70.806293,
       42.819278
      ],
      [
       -70.806332,
       42.819278
      ],
      [
       -70.806365,
       42.819276
      ],
      [
       -70.806385,
       42.819283
      ],
      [
       -70.806421,
       42.819302
      ],
      [
       -70.806459,
       42.819292
      ],
      [
       -70.806482,
       42.819285
      ],
      [
       -70.806507,
       42.819276
      ],
      [
       -70.806529,
       42.819265
      ],
      [
       -70.806565,
       42.819283
      ],
      [
       -70.806603,
       42.819292
      ],
      [
       -70.806629,
       42.819293
      ],
      [
       -70.806655,
       42.819293
      ],
      [
       -70.806685,
       42.819277
      ],
      [
       -70.806711,
       42.819283
      ],
      [
       -70.806743,
       42.819298
      ],
      [
       -70.806769,
       42.819294
      ],
      [
       -70.806822,
       42.819296
      ],
      [
       -70.80686,
       42.819297
      ],
      [
       -70.806905,
       42.819307
      ],
      [
       -70.806937,
       42.819315
      ],
      [
       -70.806952,
       42.819303
      ],
      [
       -70.806965,
       42.819295
      ],
      [
       -70.806991,
       42.819286
      ],
      [
       -70.807024,
       42.819281
      ],
      [
       -70.807045,
       42.81928
      ],
      [
       -70.807069,
       42.819283
      ],
      [
       -70.807097,
       42.81929
      ],
      [
       -70.807128,
       42.819288
      ],
      [
       -70.807169,
       42.819284
      ],
      [
       -70.807203,
       42.81929
      ],
      [
       -70.807225,
       42.819294
      ],
      [
       -70.807268,
       42.819292
      ],
      [
       -70.8073,
       42.819301
      ],
      [
       -70.807312,
       42.819324
      ],
      [
       -70.807331,
       42.819321
      ],
      [
       -70.807351,
       42.819312
      ],
      [
       -70.807382,
       42.819303
      ],
      [
       -70.807413,
       42.819306
      ],
      [
       -70.80745,
       42.819311
      ],
      [
       -70.807472,
       42.819317
      ],
      [
       -70.807498,
       42.819322
      ],
      [
       -70.807514,
       42.819326
      ],
      [
       -70.807541,
       42.819319
      ],
      [
       -70.807571,
       42.819333
      ],
      [
       -70.807597,
       42.819321
      ],
      [
       -70.807619,
       42.81932
      ],
      [
       -70.80765,
       42.81933
      ],
      [
       -70.807669,
       42.819328
      ],
      [
       -70.807693,
       42.819321
      ],
      [
       -70.807725,
       42.819327
      ],
      [
       -70.807748,
       42.81933
      ],
      [
       -70.80778,
       42.819324
      ],
      [
       -70.807801,
       42.819323
      ],
      [
       -70.807828,
       42.819319
      ],
      [
       -70.807846,
       42.819328
      ],
      [
       -70.807861,
       42.819348
      ],
      [
       -70.807904,
       42.819345
      ],
      [
       -70.807926,
       42.81934
      ],
      [
       -70.807946,
       42.81934
      ],
      [
       -70.807971,
       42.819345
      ],
      [
       -70.807988,
       42.819355
      ],
      [
       -70.808005,
       42.819364
      ],
      [
       -70.808023,
       42.819363
      ],
      [
       -70.808034,
       42.81937
      ],
      [
       -70.80806,
       42.819374
      ],
      [
       -70.808093,
       42.819371
      ],
      [
       -70.808139,
       42.81939
      ],
      [
       -70.808233,
       42.819405
      ],
      [
       -70.808267,
       42.819429
      ],
      [
       -70.808281,
       42.819435
      ],
      [
       -70.808316,
       42.819428
      ],
      [
       -70.808346,
       42.819442
      ],
      [
       -70.808368,
       42.819442
      ],
      [
       -70.80839,
       42.819454
      ],
      [
       -70.808409,
       42.819466
      ],
      [
       -70.808429,
       42.819477
      ],
      [
       -70.808447,
       42.819487
      ],
      [
       -70.808455,
       42.819504
      ],
      [
       -70.808468,
       42.819513
      ],
      [
       -70.808486,
       42.819502
      ],
      [
       -70.8085,
       42.819502
      ],
      [
       -70.80851,
       42.819518
      ],
      [
       -70.808522,
       42.819525
      ],
      [
       -70.808532,
       42.81952
      ],
      [
       -70.808553,
       42.81952
      ],
      [
       -70.808565,
       42.81954
      ],
      [
       -70.808594,
       42.819554
      ],
      [
       -70.808585,
       42.81957
      ],
      [
       -70.808624,
       42.819573
      ],
      [
       -70.808643,
       42.819571
      ],
      [
       -70.808668,
       42.819579
      ],
      [
       -70.808699,
       42.819588
      ],
      [
       -70.808707,
       42.819614
      ],
      [
       -70.80873,
       42.819627
      ],
      [
       -70.808742,
       42.819629
      ],
      [
       -70.808768,
       42.819648
      ],
      [
       -70.808774,
       42.819672
      ],
      [
       -70.80879,
       42.819669
      ],
      [
       -70.808795,
       42.819662
      ],
      [
       -70.808805,
       42.819663
      ],
      [
       -70.808819,
       42.819675
      ],
      [
       -70.80881,
       42.819691
      ],
      [
       -70.808826,
       42.819709
      ],
      [
       -70.808853,
       42.819721
      ],
      [
       -70.808881,
       42.819724
      ],
      [
       -70.8089,
       42.819724
      ],
      [
       -70.808919,
       42.819738
      ],
      [
       -70.808921,
       42.819757
      ],
      [
       -70.808946,
       42.819755
      ],
      [
       -70.808974,
       42.819772
      ],
      [
       -70.808993,
       42.819784
      ],
      [
       -70.809,
       42.819803
      ],
      [
       -70.809014,
       42.81981
      ],
      [
       -70.809039,
       42.819807
      ],
      [
       -70.809075,
       42.81983
      ],
      [
       -70.809089,
       42.819848
      ],
      [
       -70.809112,
       42.819864
      ],
      [
       -70.809136,
       42.819876
      ],
      [
       -70.809156,
       42.819895
      ],
      [
       -70.809169,
       42.819907
      ],
      [
       -70.809177,
       42.819917
      ],
      [
       -70.8092,
       42.819927
      ],
      [
       -70.809229,
       42.819939
      ],
      [
       -70.809241,
       42.819954
      ],
      [
       -70.809269,
       42.819973
      ],
      [
       -70.809286,
       42.819969
      ],
      [
       -70.809297,
       42.819975
      ],
      [
       -70.809318,
       42.819988
      ],
      [
       -70.809303,
       42.820005
      ],
      [
       -70.809315,
       42.820017
      ],
      [
       -70.809332,
       42.82003
      ],
      [
       -70.809354,
       42.820027
      ],
      [
       -70.809375,
       42.820021
      ],
      [
       -70.809395,
       42.820026
      ],
      [
       -70.809394,
       42.820038
      ],
      [
       -70.809411,
       42.820054
      ],
      [
       -70.809428,
       42.820054
      ],
      [
       -70.809429,
       42.820079
      ],
      [
       -70.809446,
       42.820083
      ],
      [
       -70.809469,
       42.820069
      ],
      [
       -70.809485,
       42.820073
      ],
      [
       -70.809483,
       42.820094
      ],
      [
       -70.80951,
       42.820099
      ],
      [
       -70.809536,
       42.820119
      ],
      [
       -70.809556,
       42.820126
      ],
      [
       -70.80958,
       42.82014
      ],
      [
       -70.809594,
       42.820152
      ],
      [
       -70.809597,
       42.820174
      ],
      [
       -70.809628,
       42.820183
      ],
      [
       -70.809652,
       42.820201
      ],
      [
       -70.809672,
       42.820211
      ],
      [
       -70.809687,
       42.820224
      ],
      [
       -70.809714,
       42.820228
      ],
      [
       -70.809726,
       42.820225
      ],
      [
       -70.809737,
       42.820245
      ],
      [
       -70.809759,
       42.820266
      ],
      [
       -70.809772,
       42.820287
      ],
      [
       -70.809791,
       42.820299
      ],
      [
       -70.8098,
       42.820315
      ],
      [
       -70.809823,
       42.820327
      ],
      [
       -70.80985,
       42.820339
      ],
      [
       -70.809876,
       42.820354
      ],
      [
       -70.8099,
       42.820369
      ],
      [
       -70.809914,
       42.820381
      ],
      [
       -70.809934,
       42.820395
      ],
      [
       -70.809947,
       42.820403
      ],
      [
       -70.809964,
       42.820417
      ],
      [
       -70.809961,
       42.82044
      ],
      [
       -70.809973,
       42.820445
      ],
      [
       -70.81002,
       42.820449
      ],
      [
       -70.810035,
       42.820472
      ],
      [
       -70.810074,
       42.820498
      ],
      [
       -70.810081,
       42.820509
      ],
      [
       -70.810103,
       42.820517
      ],
      [
       -70.810121,
       42.820536
      ],
      [
       -70.810146,
       42.820543
      ],
      [
       -70.810169,
       42.820551
      ],
      [
       -70.810176,
       42.82056
      ],
      [
       -70.810205,
       42.820579
      ],
      [
       -70.810224,
       42.820602
      ],
      [
       -70.810232,
       42.820613
      ],
      [
       -70.810249,
       42.820622
      ],
      [
       -70.810285,
       42.820633
      ],
      [
       -70.810306,
       42.820633
      ],
      [
       -70.810294,
       42.82065
      ],
      [
       -70.810319,
       42.82067
      ],
      [
       -70.810341,
       42.820681
      ],
      [
       -70.810372,
       42.820706
      ],
      [
       -70.810398,
       42.820715
      ],
      [
       -70.810418,
       42.820727
      ],
      [
       -70.810442,
       42.820743
      ],
      [
       -70.810457,
       42.82075
      ],
      [
       -70.810484,
       42.820754
      ],
      [
       -70.810514,
       42.820775
      ],
      [
       -70.810538,
       42.820794
      ],
      [
       -70.810561,
       42.820809
      ],
      [
       -70.810584,
       42.82082
      ],
      [
       -70.810611,
       42.820835
      ],
      [
       -70.81063,
       42.820844
      ],
      [
       -70.810655,
       42.820856
      ],
      [
       -70.810679,
       42.820871
      ],
      [
       -70.810697,
       42.820889
      ],
      [
       -70.810715,
       42.820903
      ],
      [
       -70.81074,
       42.820916
      ],
      [
       -70.81078,
       42.820942
      ],
      [
       -70.810832,
       42.820957
      ],
      [
       -70.810851,
       42.820981
      ],
      [
       -70.810879,
       42.820998
      ],
      [
       -70.810901,
       42.821015
      ],
      [
       -70.810915,
       42.821032
      ],
      [
       -70.810937,
       42.821045
      ],
      [
       -70.811001,
       42.821092
      ],
      [
       -70.811036,
       42.821119
      ],
      [
       -70.81106,
       42.821129
      ],
      [
       -70.811085,
       42.82114
      ],
      [
       -70.811109,
       42.821152
      ],
      [
       -70.811142,
       42.821167
      ],
      [
       -70.811183,
       42.821194
      ],
      [
       -70.811198,
       42.82121
      ],
      [
       -70.811218,
       42.821222
      ],
      [
       -70.811243,
       42.821234
      ],
      [
       -70.811256,
       42.821235
      ],
      [
       -70.811271,
       42.82124
      ],
      [
       -70.811294,
       42.82125
      ],
      [
       -70.811315,
       42.821263
      ],
      [
       -70.811338,
       42.821279
      ],
      [
       -70.811359,
       42.8213
      ],
      [
       -70.811372,
       42.82131
      ],
      [
       -70.81139,
       42.821325
      ],
      [
       -70.811406,
       42.821339
      ],
      [
       -70.811587,
       42.82145
      ],
      [
       -70.81162,
       42.821464
      ],
      [
       -70.811646,
       42.821478
      ],
      [
       -70.811679,
       42.8215
      ],
      [
       -70.811707,
       42.821518
      ],
      [
       -70.811744,
       42.821546
      ],
      [
       -70.811771,
       42.821565
      ],
      [
       -70.811798,
       42.821589
      ],
      [
       -70.811828,
       42.821606
      ],
      [
       -70.811852,
       42.821634
      ],
      [
       -70.811885,
       42.821652
      ],
      [
       -70.811924,
       42.821683
      ],
      [
       -70.811962,
       42.821708
      ],
      [
       -70.812018,
       42.821738
      ],
      [
       -70.812053,
       42.821754
      ],
      [
       -70.812102,
       42.821781
      ],
      [
       -70.81214,
       42.821798
      ],
      [
       -70.812174,
       42.821812
      ],
      [
       -70.8122,
       42.821832
      ],
      [
       -70.812242,
       42.821866
      ],
      [
       -70.812269,
       42.821887
      ],
      [
       -70.812325,
       42.821919
      ],
      [
       -70.812356,
       42.821936
      ],
      [
       -70.812382,
       42.82196
      ],
      [
       -70.812435,
       42.821996
      ],
      [
       -70.812467,
       42.822015
      ],
      [
       -70.812507,
       42.822041
      ],
      [
       -70.812541,
       42.822068
      ],
      [
       -70.812605,
       42.822105
      ],
      [
       -70.812625,
       42.82212
      ],
      [
       -70.81267,
       42.822145
      ],
      [
       -70.812705,
       42.822163
      ],
      [
       -70.812749,
       42.822188
      ],
      [
       -70.81279,
       42.822221
      ],
      [
       -70.812836,
       42.822248
      ],
      [
       -70.812866,
       42.82227
      ],
      [
       -70.812996,
       42.822347
      ],
      [
       -70.813023,
       42.822365
      ],
      [
       -70.813044,
       42.822381
      ],
      [
       -70.813069,
       42.8224
      ],
      [
       -70.813098,
       42.822423
      ],
      [
       -70.813119,
       42.822452
      ],
      [
       -70.813167,
       42.822474
      ],
      [
       -70.813204,
       42.822488
      ],
      [
       -70.813225,
       42.822514
      ],
      [
       -70.813248,
       42.822527
      ],
      [
       -70.813274,
       42.822531
      ],
      [
       -70.813297,
       42.82253
      ],
      [
       -70.81335,
       42.822506
      ],
      [
       -70.813635,
       42.822544
      ],
      [
       -70.813647,
       42.822538
      ],
      [
       -70.813635,
       42.822534
      ],
      [
       -70.813543,
       42.822517
      ],
      [
       -70.813503,
       42.822502
      ],
      [
       -70.813381,
       42.822482
      ],
      [
       -70.813346,
       42.822462
      ],
      [
       -70.813329,
       42.822451
      ],
      [
       -70.813318,
       42.82244
      ],
      [
       -70.81331,
       42.822428
      ],
      [
       -70.813294,
       42.822419
      ],
      [
       -70.813286,
       42.822415
      ],
      [
       -70.813242,
       42.822397
      ],
      [
       -70.81322,
       42.822383
      ],
      [
       -70.813207,
       42.822374
      ],
      [
       -70.813195,
       42.822361
      ],
      [
       -70.813188,
       42.822333
      ],
      [
       -70.813121,
       42.822255
      ],
      [
       -70.813081,
       42.822218
      ],
      [
       -70.813051,
       42.822202
      ],
      [
       -70.813032,
       42.82219
      ],
      [
       -70.813003,
       42.822172
      ],
      [
       -70.812991,
       42.822154
      ],
      [
       -70.812976,
       42.822131
      ],
      [
       -70.812964,
       42.822121
      ],
      [
       -70.812943,
       42.822106
      ],
      [
       -70.81292,
       42.822089
      ],
      [
       -70.812898,
       42.822076
      ],
      [
       -70.812869,
       42.822063
      ],
      [
       -70.812838,
       42.822058
      ],
      [
       -70.812815,
       42.822047
      ],
      [
       -70.812806,
       42.822033
      ],
      [
       -70.812779,
       42.82199
      ],
      [
       -70.812752,
       42.821973
      ],
      [
       -70.812732,
       42.821963
      ],
      [
       -70.812698,
       42.821951
      ],
      [
       -70.812656,
       42.821931
      ],
      [
       -70.81263,
       42.821916
      ],
      [
       -70.81261,
       42.821904
      ],
      [
       -70.81258,
       42.821882
      ],
      [
       -70.812552,
       42.821867
      ],
      [
       -70.812525,
       42.821857
      ],
      [
       -70.812489,
       42.821837
      ],
      [
       -70.81241,
       42.821773
      ],
      [
       -70.812391,
       42.821756
      ],
      [
       -70.812377,
       42.821742
      ],
      [
       -70.812342,
       42.821721
      ],
      [
       -70.81233,
       42.821715
      ],
      [
       -70.812292,
       42.8217
      ],
      [
       -70.812263,
       42.821687
      ],
      [
       -70.812226,
       42.821665
      ],
      [
       -70.812201,
       42.821645
      ],
      [
       -70.812171,
       42.821618
      ],
      [
       -70.812149,
       42.821594
      ],
      [
       -70.812123,
       42.821582
      ],
      [
       -70.81209,
       42.821568
      ],
      [
       -70.81207,
       42.821557
      ],
      [
       -70.812033,
       42.821531
      ],
      [
       -70.812005,
       42.821515
      ],
      [
       -70.811998,
       42.821509
      ],
      [
       -70.811976,
       42.821497
      ],
      [
       -70.811947,
       42.821483
      ],
      [
       -70.811934,
       42.821476
      ],
      [
       -70.811918,
       42.821466
      ],
      [
       -70.8119,
       42.821455
      ],
      [
       -70.811882,
       42.821435
      ],
      [
       -70.811862,
       42.821421
      ],
      [
       -70.811844,
       42.821409
      ],
      [
       -70.811821,
       42.821395
      ],
      [
       -70.811786,
       42.821387
      ],
      [
       -70.811766,
       42.821374
      ],
      [
       -70.811737,
       42.821345
      ],
      [
       -70.811729,
       42.821335
      ],
      [
       -70.811717,
       42.821317
      ],
      [
       -70.811702,
       42.821305
      ],
      [
       -70.811678,
       42.821293
      ],
      [
       -70.811652,
       42.821287
      ],
      [
       -70.811632,
       42.821287
      ],
      [
       -70.811607,
       42.821284
      ],
      [
       -70.811592,
       42.821278
      ],
      [
       -70.811576,
       42.821266
      ],
      [
       -70.811553,
       42.82125
      ],
      [
       -70.811526,
       42.821224
      ],
      [
       -70.811514,
       42.821209
      ],
      [
       -70.811506,
       42.8212
      ],
      [
       -70.811486,
       42.821184
      ],
      [
       -70.811471,
       42.821171
      ],
      [
       -70.811444,
       42.82116
      ],
      [
       -70.811426,
       42.821144
      ],
      [
       -70.811412,
       42.821128
      ],
      [
       -70.811353,
       42.821094
      ],
      [
       -70.811327,
       42.821073
      ],
      [
       -70.81132,
       42.821064
      ],
      [
       -70.811302,
       42.821053
      ],
      [
       -70.811288,
       42.821038
      ],
      [
       -70.811278,
       42.821023
      ],
      [
       -70.811267,
       42.821011
      ],
      [
       -70.81125,
       42.820996
      ],
      [
       -70.811238,
       42.820987
      ],
      [
       -70.811225,
       42.820979
      ],
      [
       -70.811178,
       42.82096
      ],
      [
       -70.811164,
       42.820947
      ],
      [
       -70.811148,
       42.820936
      ],
      [
       -70.811127,
       42.820923
      ],
      [
       -70.811107,
       42.820911
      ],
      [
       -70.811089,
       42.820898
      ],
      [
       -70.811065,
       42.82088
      ],
      [
       -70.811046,
       42.82087
      ],
      [
       -70.811015,
       42.820849
      ],
      [
       -70.810985,
       42.820827
      ],
      [
       -70.810963,
       42.820807
      ],
      [
       -70.810942,
       42.820794
      ],
      [
       -70.810901,
       42.820772
      ],
      [
       -70.810883,
       42.820765
      ],
      [
       -70.810834,
       42.820732
      ],
      [
       -70.810818,
       42.820716
      ],
      [
       -70.810793,
       42.820697
      ],
      [
       -70.810743,
       42.820663
      ],
      [
       -70.810711,
       42.820645
      ],
      [
       -70.810675,
       42.820622
      ],
      [
       -70.810638,
       42.820594
      ],
      [
       -70.810596,
       42.820575
      ],
      [
       -70.810554,
       42.820555
      ],
      [
       -70.810519,
       42.820543
      ],
      [
       -70.8105,
       42.820538
      ],
      [
       -70.810484,
       42.820525
      ],
      [
       -70.810475,
       42.820503
      ],
      [
       -70.810456,
       42.820496
      ],
      [
       -70.810433,
       42.820481
      ],
      [
       -70.8104,
       42.820464
      ],
      [
       -70.810382,
       42.820455
      ],
      [
       -70.810357,
       42.820439
      ],
      [
       -70.810338,
       42.820424
      ],
      [
       -70.810317,
       42.820407
      ],
      [
       -70.810307,
       42.820396
      ],
      [
       -70.810288,
       42.82038
      ],
      [
       -70.810267,
       42.820362
      ],
      [
       -70.810239,
       42.82034
      ],
      [
       -70.810216,
       42.820326
      ],
      [
       -70.810192,
       42.820308
      ],
      [
       -70.810179,
       42.820297
      ],
      [
       -70.810158,
       42.820278
      ],
      [
       -70.810137,
       42.820253
      ],
      [
       -70.810122,
       42.820237
      ],
      [
       -70.810085,
       42.820209
      ],
      [
       -70.810062,
       42.820194
      ],
      [
       -70.810039,
       42.820187
      ],
      [
       -70.810019,
       42.82018
      ],
      [
       -70.809999,
       42.820169
      ],
      [
       -70.809965,
       42.82015
      ],
      [
       -70.809949,
       42.820133
      ],
      [
       -70.809929,
       42.820125
      ],
      [
       -70.809905,
       42.820118
      ],
      [
       -70.809894,
       42.820111
      ],
      [
       -70.809881,
       42.820104
      ],
      [
       -70.809865,
       42.820088
      ],
      [
       -70.809854,
       42.820076
      ],
      [
       -70.809831,
       42.820058
      ],
      [
       -70.809827,
       42.820055
      ],
      [
       -70.809806,
       42.820045
      ],
      [
       -70.809795,
       42.820038
      ],
      [
       -70.809779,
       42.820027
      ],
      [
       -70.809771,
       42.820018
      ],
      [
       -70.809755,
       42.820004
      ],
      [
       -70.809743,
       42.819994
      ],
      [
       -70.809727,
       42.819978
      ],
      [
       -70.809709,
       42.819963
      ],
      [
       -70.809678,
       42.819946
      ],
      [
       -70.809658,
       42.819934
      ],
      [
       -70.80963,
       42.819914
      ],
      [
       -70.809617,
       42.819899
      ],
      [
       -70.809607,
       42.81989
      ],
      [
       -70.809586,
       42.819875
      ],
      [
       -70.809567,
       42.819853
      ],
      [
       -70.809538,
       42.81984
      ],
      [
       -70.809516,
       42.819837
      ],
      [
       -70.809485,
       42.819816
      ],
      [
       -70.809453,
       42.819793
      ],
      [
       -70.809434,
       42.819777
      ],
      [
       -70.809411,
       42.819763
      ],
      [
       -70.809391,
       42.819747
      ],
      [
       -70.809372,
       42.819737
      ],
      [
       -70.809326,
       42.819713
      ],
      [
       -70.809303,
       42.81969
      ],
      [
       -70.809279,
       42.81967
      ],
      [
       -70.809218,
       42.819631
      ],
      [
       -70.809197,
       42.819617
      ],
      [
       -70.809171,
       42.8196
      ],
      [
       -70.809155,
       42.81959
      ],
      [
       -70.809135,
       42.819575
      ],
      [
       -70.809094,
       42.81955
      ],
      [
       -70.809065,
       42.819533
      ],
      [
       -70.809028,
       42.819514
      ],
      [
       -70.808994,
       42.819493
      ],
      [
       -70.808969,
       42.819469
      ],
      [
       -70.808938,
       42.819459
      ],
      [
       -70.808911,
       42.819441
      ],
      [
       -70.808878,
       42.81942
      ],
      [
       -70.808848,
       42.81942
      ],
      [
       -70.808815,
       42.819396
      ],
      [
       -70.808746,
       42.819369
      ],
      [
       -70.808705,
       42.819344
      ],
      [
       -70.808677,
       42.819335
      ],
      [
       -70.80865,
       42.819315
      ],
      [
       -70.808619,
       42.819294
      ],
      [
       -70.808566,
       42.819274
      ],
      [
       -70.808533,
       42.81926
      ],
      [
       -70.808513,
       42.81925
      ],
      [
       -70.808479,
       42.81924
      ],
      [
       -70.808454,
       42.819232
      ],
      [
       -70.808418,
       42.81922
      ],
      [
       -70.80839,
       42.819208
      ],
      [
       -70.808356,
       42.819193
      ],
      [
       -70.808329,
       42.819187
      ],
      [
       -70.808304,
       42.819183
      ],
      [
       -70.808277,
       42.81918
      ],
      [
       -70.80825,
       42.819182
      ],
      [
       -70.808223,
       42.819178
      ],
      [
       -70.808176,
       42.819163
      ],
      [
       -70.80814,
       42.81915
      ],
      [
       -70.808098,
       42.819144
      ],
      [
       -70.808073,
       42.819144
      ],
      [
       -70.808034,
       42.81914
      ],
      [
       -70.808002,
       42.819137
      ],
      [
       -70.807975,
       42.819134
      ],
      [
       -70.80795,
       42.819134
      ],
      [
       -70.807837,
       42.819124
      ],
      [
       -70.807781,
       42.819117
      ],
      [
       -70.807698,
       42.819113
      ],
      [
       -70.807638,
       42.819105
      ],
      [
       -70.80759,
       42.819107
      ],
      [
       -70.807557,
       42.819102
      ],
      [
       -70.807491,
       42.819095
      ],
      [
       -70.807469,
       42.819097
      ],
      [
       -70.807451,
       42.8191
      ],
      [
       -70.807421,
       42.819102
      ],
      [
       -70.80739,
       42.819108
      ],
      [
       -70.807322,
       42.819101
      ],
      [
       -70.807262,
       42.819098
      ],
      [
       -70.807193,
       42.819101
      ],
      [
       -70.807154,
       42.819094
      ],
      [
       -70.807128,
       42.819095
      ],
      [
       -70.80706,
       42.819083
      ],
      [
       -70.807011,
       42.819081
      ],
      [
       -70.806979,
       42.819086
      ],
      [
       -70.80695,
       42.819086
      ],
      [
       -70.806898,
       42.819073
      ],
      [
       -70.806866,
       42.819073
      ],
      [
       -70.806839,
       42.819077
      ],
      [
       -70.806806,
       42.81908
      ],
      [
       -70.806751,
       42.819067
      ],
      [
       -70.806661,
       42.819057
      ],
      [
       -70.806572,
       42.819042
      ],
      [
       -70.806511,
       42.819043
      ],
      [
       -70.806419,
       42.819035
      ],
      [
       -70.806388,
       42.819023
      ],
      [
       -70.806336,
       42.819035
      ],
      [
       -70.806257,
       42.819024
      ],
      [
       -70.806185,
       42.819008
      ],
      [
       -70.806119,
       42.819005
      ],
      [
       -70.806067,
       42.819002
      ],
      [
       -70.806028,
       42.819003
      ],
      [
       -70.805887,
       42.818977
      ],
      [
       -70.805782,
       42.818979
      ],
      [
       -70.805719,
       42.818975
      ],
      [
       -70.805663,
       42.818958
      ],
      [
       -70.805545,
       42.818961
      ],
      [
       -70.805489,
       42.818965
      ],
      [
       -70.805376,
       42.818949
      ],
      [
       -70.805305,
       42.818933
      ],
      [
       -70.805237,
       42.818924
      ],
      [
       -70.805158,
       42.818921
      ],
      [
       -70.805026,
       42.818906
      ],
      [
       -70.804971,
       42.818893
      ],
      [
       -70.804868,
       42.818883
      ],
      [
       -70.804797,
       42.818887
      ],
      [
       -70.804765,
       42.818879
      ],
      [
       -70.804715,
       42.818878
      ],
      [
       -70.804677,
       42.81888
      ],
      [
       -70.804639,
       42.818888
      ],
      [
       -70.804609,
       42.818891
      ],
      [
       -70.804558,
       42.818886
      ],
      [
       -70.804388,
       42.818866
      ],
      [
       -70.804293,
       42.818863
      ],
      [
       -70.804252,
       42.818863
      ],
      [
       -70.804196,
       42.818856
      ],
      [
       -70.804164,
       42.818855
      ],
      [
       -70.804099,
       42.818864
      ],
      [
       -70.804038,
       42.818856
      ],
      [
       -70.80392,
       42.818852
      ],
      [
       -70.803851,
       42.81884
      ],
      [
       -70.803822,
       42.818831
      ],
      [
       -70.803777,
       42.818822
      ],
      [
       -70.803774,
       42.818821
      ],
      [
       -70.803724,
       42.818822
      ]
     ]
    ]
   }
  },
  {
   "type": "Feature",
   "properties": {
    "mask": "land",
    "name": "North Jetty Spur",
    "source": "OSM way 640430601 (ODbL, openstreetmap.org/copyright)"
   },
   "geometry": {
    "type": "Polygon",
    "coordinates": [
     [
      [
       -70.811587,
       42.82145
      ],
      [
       -70.811406,
       42.821339
      ],
      [
       -70.811402,
       42.821359
      ],
      [
       -70.811408,
       42.821374
      ],
      [
       -70.811387,
       42.821391
      ],
      [
       -70.81139,
       42.82141
      ],
      [
       -70.811364,
       42.821417
      ],
      [
       -70.811343,
       42.82143
      ],
      [
       -70.811337,
       42.821453
      ],
      [
       -70.811314,
       42.821457
      ],
      [
       -70.811296,
       42.821475
      ],
      [
       -70.811286,
       42.821488
      ],
      [
       -70.811271,
       42.821501
      ],
      [
       -70.811256,
       42.821515
      ],
      [
       -70.811241,
       42.821528
      ],
      [
       -70.811227,
       42.821541
      ],
      [
       -70.811208,
       42.821557
      ],
      [
       -70.811188,
       42.821572
      ],
      [
       -70.811163,
       42.821587
      ],
      [
       -70.811141,
       42.821602
      ],
      [
       -70.811126,
       42.821616
      ],
      [
       -70.811113,
       42.821635
      ],
      [
       -70.811095,
       42.821653
      ],
      [
       -70.811082,
       42.82167
      ],
      [
       -70.811079,
       42.821688
      ],
      [
       -70.811078,
       42.82171
      ],
      [
       -70.811083,
       42.82173
      ],
      [
       -70.811097,
       42.821743
      ],
      [
       -70.811129,
       42.821758
      ],
      [
       -70.811161,
       42.821762
      ],
      [
       -70.811211,
       42.821764
      ],
      [
       -70.811249,
       42.82175
      ],
      [
       -70.811262,
       42.821745
      ],
      [
       -70.811293,
       42.821731
      ],
      [
       -70.811306,
       42.821721
      ],
      [
       -70.811325,
       42.821708
      ],
      [
       -70.811351,
       42.821686
      ],
      [
       -70.811375,
       42.82167
      ],
      [
       -70.811399,
       42.82165
      ],
      [
       -70.811426,
       42.821628
      ],
      [
       -70.811443,
       42.821611
      ],
      [
       -70.811466,
       42.821577
      ],
      [
       -70.811482,
       42.821557
      ],
      [
       -70.811483,
       42.821539
      ],
      [
       -70.811487,
       42.821533
      ],
      [
       -70.811508,
       42.821505
      ],
      [
       -70.811528,
       42.821478
      ],
      [
       -70.811542,
       42.821459
      ],
      [
       -70.811561,
       42.821449
      ],
      [
       -70.811587,
       42.82145
      ]
     ]
    ]
   }
  },
  {
   "type": "Feature",
   "properties": {
    "mask": "land",
    "name": "South Jetty",
    "source": "OSM way 256125510 (ODbL, openstreetmap.org/copyright)"
   },
   "geometry": {
    "type": "Polygon",
    "coordinates": [
     [
      [
       -70.805851,
       42.816052
      ],
      [
       -70.805986,
       42.816058
      ],
      [
       -70.806186,
       42.816085
      ],
      [
       -70.806685,
       42.816122
      ],
      [
       -70.806957,
       42.816122
      ],
      [
       -70.807231,
       42.816095
      ],
      [
       -70.807447,
       42.816007
      ],
      [
       -70.80772,
       42.815915
      ],
      [
       -70.808,
       42.815821
      ],
      [
       -70.808153,
       42.815784
      ],
      [
       -70.80825,
       42.815775
      ],
      [
       -70.80831,
       42.81575
      ],
      [
       -70.8086,
       42.815635
      ],
      [
       -70.808786,
       42.815534
      ],
      [
       -70.808914,
       42.81545
      ],
      [
       -70.809097,
       42.815334
      ],
      [
       -70.809222,
       42.815242
      ],
      [
       -70.80937,
       42.815117
      ],
      [
       -70.809487,
       42.815015
      ],
      [
       -70.809574,
       42.814948
      ],
      [
       -70.809652,
       42.814897
      ],
      [
       -70.809819,
       42.814851
      ],
      [
       -70.809901,
       42.814831
      ],
      [
       -70.809966,
       42.814805
      ],
      [
       -70.810034,
       42.814771
      ],
      [
       -70.810081,
       42.814735
      ],
      [
       -70.81014,
       42.814713
      ],
      [
       -70.810202,
       42.814691
      ],
      [
       -70.810262,
       42.814684
      ],
      [
       -70.810348,
       42.814674
      ],
      [
       -70.810436,
       42.81466
      ],
      [
       -70.810523,
       42.814648
      ],
      [
       -70.810633,
       42.81463
      ],
      [
       -70.810676,
       42.814617
      ],
      [
       -70.810711,
       42.814613
      ],
      [
       -70.810793,
       42.814612
      ],
      [
       -70.810843,
       42.814608
      ],
      [
       -70.810907,
       42.814591
      ],
      [
       -70.810936,
       42.814594
      ],
      [
       -70.811021,
       42.814595
      ],
      [
       -70.811059,
       42.814598
      ],
      [
       -70.811156,
       42.814626
      ],
      [
       -70.81127,
       42.814654
      ],
      [
       -70.811401,
       42.814708
      ],
      [
       -70.811455,
       42.814733
      ],
      [
       -70.811493,
       42.814746
      ],
      [
       -70.811513,
       42.814755
      ],
      [
       -70.81154,
       42.814778
      ],
      [
       -70.811565,
       42.814806
      ],
      [
       -70.811582,
       42.814811
      ],
      [
       -70.81161,
       42.814817
      ],
      [
       -70.811613,
       42.814829
      ],
      [
       -70.811627,
       42.814854
      ],
      [
       -70.811646,
       42.814855
      ],
      [
       -70.811674,
       42.814856
      ],
      [
       -70.811713,
       42.814867
      ],
      [
       -70.811753,
       42.814887
      ],
      [
       -70.811783,
       42.8149
      ],
      [
       -70.811794,
       42.814915
      ],
      [
       -70.81178,
       42.814935
      ],
      [
       -70.811779,
       42.814955
      ],
      [
       -70.811765,
       42.814978
      ],
      [
       -70.811738,
       42.814991
      ],
      [
       -70.811711,
       42.814994
      ],
      [
       -70.811651,
       42.815005
      ],
      [
       -70.811614,
       42.815003
      ],
      [
       -70.811582,
       42.814998
      ],
      [
       -70.811539,
       42.814979
      ],
      [
       -70.811498,
       42.814962
      ],
      [
       -70.811438,
       42.814934
      ],
      [
       -70.811408,
       42.814915
      ],
      [
       -70.811365,
       42.814885
      ],
      [
       -70.811324,
       42.814868
      ],
      [
       -70.811316,
       42.814854
      ],
      [
       -70.811224,
       42.814817
      ],
      [
       -70.811219,
       42.814797
      ],
      [
       -70.811193,
       42.814794
      ],
      [
       -70.811134,
       42.814792
      ],
      [
       -70.811011,
       42.814751
      ],
      [
       -70.810938,
       42.814743
      ],
      [
       -70.810824,
       42.81472
      ],
      [
       -70.810732,
       42.814731
      ],
      [
       -70.810553,
       42.81476
      ],
      [
       -70.810469,
       42.814792
      ],
      [
       -70.810429,
       42.814796
      ],
      [
       -70.810343,
       42.814806
      ],
      [
       -70.810233,
       42.814832
      ],
      [
       -70.810143,
       42.814848
      ],
      [
       -70.810075,
       42.814866
      ],
      [
       -70.809987,
       42.814894
      ],
      [
       -70.809908,
       42.814908
      ],
      [
       -70.809867,
       42.81492
      ],
      [
       -70.809832,
       42.814947
      ],
      [
       -70.809795,
       42.814977
      ],
      [
       -70.809761,
       42.815003
      ],
      [
       -70.80975,
       42.815036
      ],
      [
       -70.80972,
       42.815064
      ],
      [
       -70.809633,
       42.815117
      ],
      [
       -70.80959,
       42.815169
      ],
      [
       -70.809553,
       42.815177
      ],
      [
       -70.809509,
       42.815199
      ],
      [
       -70.809395,
       42.81528
      ],
      [
       -70.809385,
       42.815287
      ],
      [
       -70.809316,
       42.815336
      ],
      [
       -70.809198,
       42.815418
      ],
      [
       -70.809098,
       42.815495
      ],
      [
       -70.808981,
       42.815574
      ],
      [
       -70.808892,
       42.815624
      ],
      [
       -70.808815,
       42.815662
      ],
      [
       -70.808728,
       42.815728
      ],
      [
       -70.808661,
       42.815758
      ],
      [
       -70.808612,
       42.815792
      ],
      [
       -70.808561,
       42.815822
      ],
      [
       -70.808481,
       42.815847
      ],
      [
       -70.808449,
       42.815851
      ],
      [
       -70.808345,
       42.815885
      ],
      [
       -70.808241,
       42.815922
      ],
      [
       -70.808161,
       42.815958
      ],
      [
       -70.808117,
       42.815977
      ],
      [
       -70.808118,
       42.815993
      ],
      [
       -70.808102,
       42.816003
      ],
      [
       -70.808082,
       42.815995
      ],
      [
       -70.808032,
       42.816003
      ],
      [
       -70.807966,
       42.816034
      ],
      [
       -70.807865,
       42.816094
      ],
      [
       -70.80775,
       42.81615
      ],
      [
       -70.807632,
       42.816212
      ],
      [
       -70.80754,
       42.816238
      ],
      [
       -70.807441,
       42.816275
      ],
      [
       -70.807322,
       42.816316
      ],
      [
       -70.807241,
       42.816334
      ],
      [
       -70.807162,
       42.816343
      ],
      [
       -70.807104,
       42.816348
      ],
      [
       -70.807023,
       42.816362
      ],
      [
       -70.80688,
       42.816358
      ],
      [
       -70.806805,
       42.816356
      ],
      [
       -70.80672,
       42.816344
      ],
      [
       -70.806645,
       42.816337
      ],
      [
       -70.806519,
       42.816326
      ],
      [
       -70.806435,
       42.816313
      ],
      [
       -70.806336,
       42.816303
      ],
      [
       -70.806221,
       42.816291
      ],
      [
       -70.806136,
       42.816296
      ],
      [
       -70.806079,
       42.816296
      ],
      [
       -70.806007,
       42.816294
      ],
      [
       -70.805935,
       42.816284
      ],
      [
       -70.805812,
       42.816269
      ],
      [
       -70.805763,
       42.816273
      ],
      [
       -70.80571,
       42.816268
      ],
      [
       -70.805595,
       42.81626
      ],
      [
       -70.805512,
       42.816252
      ],
      [
       -70.805362,
       42.816237
      ],
      [
       -70.805297,
       42.816235
      ],
      [
       -70.805222,
       42.816228
      ],
      [
       -70.805142,
       42.816226
      ],
      [
       -70.804962,
       42.816207
      ],
      [
       -70.80477,
       42.816185
      ],
      [
       -70.8047,
       42.816188
      ],
      [
       -70.804616,
       42.816184
      ],
      [
       -70.804552,
       42.816176
      ],
      [
       -70.804431,
       42.816165
      ],
      [
       -70.80431,
       42.816146
      ],
      [
       -70.804255,
       42.816145
      ],
      [
       -70.804201,
       42.816138
      ],
      [
       -70.804146,
       42.816119
      ],
      [
       -70.804119,
       42.816107
      ],
      [
       -70.80407,
       42.816076
      ],
      [
       -70.804013,
       42.816054
      ],
      [
       -70.803964,
       42.816016
      ],
      [
       -70.803959,
       42.815972
      ],
      [
       -70.803981,
       42.815943
      ],
      [
       -70.804022,
       42.815909
      ],
      [
       -70.804087,
       42.815897
      ],
      [
       -70.804167,
       42.815874
      ],
      [
       -70.804212,
       42.815848
      ],
      [
       -70.804259,
       42.815837
      ],
      [
       -70.804305,
       42.815846
      ],
      [
       -70.804369,
       42.815823
      ],
      [
       -70.804409,
       42.815816
      ],
      [
       -70.804481,
       42.815807
      ],
      [
       -70.804543,
       42.815801
      ],
      [
       -70.804574,
       42.815792
      ],
      [
       -70.804654,
       42.815807
      ],
      [
       -70.804687,
       42.815805
      ],
      [
       -70.804723,
       42.815797
      ],
      [
       -70.804736,
       42.815785
      ],
      [
       -70.80475,
       42.815775
      ],
      [
       -70.80477,
       42.815781
      ],
      [
       -70.804787,
       42.815799
      ],
      [
       -70.804819,
       42.815804
      ],
      [
       -70.804836,
       42.815799
      ],
      [
       -70.804864,
       42.815792
      ],
      [
       -70.804885,
       42.815795
      ],
      [
       -70.804917,
       42.815801
      ],
      [
       -70.804923,
       42.815807
      ],
      [
       -70.804928,
       42.815814
      ],
      [
       -70.804934,
       42.815822
      ],
      [
       -70.804962,
       42.815841
      ],
      [
       -70.804979,
       42.815832
      ],
      [
       -70.805009,
       42.815829
      ],
      [
       -70.805026,
       42.815835
      ],
      [
       -70.805039,
       42.815843
      ],
      [
       -70.805087,
       42.815836
      ],
      [
       -70.805103,
       42.815849
      ],
      [
       -70.805119,
       42.815876
      ],
      [
       -70.805129,
       42.815895
      ],
      [
       -70.805137,
       42.815913
      ],
      [
       -70.805131,
       42.815926
      ],
      [
       -70.80514,
       42.815935
      ],
      [
       -70.805153,
       42.815938
      ],
      [
       -70.805168,
       42.815954
      ],
      [
       -70.80517,
       42.815971
      ],
      [
       -70.805172,
       42.815991
      ],
      [
       -70.805209,
       42.816
      ],
      [
       -70.805239,
       42.815998
      ],
      [
       -70.805252,
       42.815991
      ],
      [
       -70.805265,
       42.815993
      ],
      [
       -70.805273,
       42.815997
      ],
      [
       -70.805277,
       42.816008
      ],
      [
       -70.805296,
       42.816012
      ],
      [
       -70.805331,
       42.816011
      ],
      [
       -70.805346,
       42.816015
      ],
      [
       -70.805366,
       42.816026
      ],
      [
       -70.805377,
       42.816026
      ],
      [
       -70.805387,
       42.816022
      ],
      [
       -70.805396,
       42.816011
      ],
      [
       -70.80542,
       42.816002
      ],
      [
       -70.805433,
       42.816013
      ],
      [
       -70.805469,
       42.816015
      ],
      [
       -70.805521,
       42.816022
      ],
      [
       -70.805552,
       42.816027
      ],
      [
       -70.805591,
       42.816029
      ],
      [
       -70.805619,
       42.816032
      ],
      [
       -70.805637,
       42.816039
      ],
      [
       -70.805653,
       42.816042
      ],
      [
       -70.805671,
       42.816042
      ],
      [
       -70.805699,
       42.816033
      ],
      [
       -70.805851,
       42.816052
      ]
     ]
    ]
   }
  },
  {
   "type": "Feature",
   "properties": {
    "mask": "land",
    "name": "Old South Jetty",
    "source": "OSM way 559887262 (ODbL, openstreetmap.org/copyright)"
   },
   "geometry": {
    "type": "Polygon",
    "coordinates": [
     [
      [
       -70.811774,
       42.813542
      ],
      [
       -70.811761,
       42.813564
      ],
      [
       -70.811722,
       42.813594
      ],
      [
       -70.811656,
       42.813638
      ],
      [
       -70.811602,
       42.813665
      ],
      [
       -70.811528,
       42.8137
      ],
      [
       -70.811495,
       42.813733
      ],
      [
       -70.811389,
       42.813809
      ],
      [
       -70.811291,
       42.813882
      ],
      [
       -70.811178,
       42.813966
      ],
      [
       -70.811093,
       42.81401
      ],
      [
       -70.811046,
       42.814038
      ],
      [
       -70.811011,
       42.814065
      ],
      [
       -70.810991,
       42.814073
      ],
      [
       -70.81098,
       42.814071
      ],
      [
       -70.810979,
       42.814063
      ],
      [
       -70.810994,
       42.81404
      ],
      [
       -70.811059,
       42.813981
      ],
      [
       -70.811145,
       42.813917
      ],
      [
       -70.811215,
       42.813874
      ],
      [
       -70.811371,
       42.813762
      ],
      [
       -70.811424,
       42.813716
      ],
      [
       -70.811503,
       42.813656
      ],
      [
       -70.811589,
       42.813593
      ],
      [
       -70.811661,
       42.813531
      ],
      [
       -70.811692,
       42.813519
      ],
      [
       -70.811723,
       42.813517
      ],
      [
       -70.811756,
       42.813525
      ],
      [
       -70.811774,
       42.813542
      ]
     ]
    ]
   }
  }
 ]
}