<?xml version="1.0" encoding="UTF-8"?>
<kml xmlns="http://www.opengis.net/kml/2.2"><Document>
<name>Merrimack Coastal Structures (OSM, ODbL)</name>
<Style id="jetty"><LineStyle><color>ff00d7ff</color><width>3</width></LineStyle><PolyStyle><color>5500d7ff</color></PolyStyle></Style>
<Folder><name>Structures</name>
<Placemark><name>Town Center Groin</name><description>alt_name=Center Island Groin; area=yes; man_made=groyne; material=stone; name=Town Center Groin; old_name=Turnpike Groin; source=EsriWorldImageryClarity; source:alt_name=https://scholarworks.wm.edu/cgi/viewcontent.cgi?article=2401&amp;context=vimsarticles; source:name=http://www.townofnewbury.org/pages/EOEEA%20Beach%20Scraping%20Workgroup%20Report.pdf; source:old_name=https://apps.dtic.mil/dtic/tr/fulltext/u2/a080493.pdf</description><styleUrl>#jetty</styleUrl><Polygon><outerBoundaryIs><LinearRing><coordinates>-70.807258,42.798768,0 -70.807228,42.798737,0 -70.807212,42.798709,0 -70.807209,42.798658,0 -70.807236,42.798628,0 -70.807266,42.798621,0 -70.807290,42.798605,0 -70.807314,42.798597,0 -70.807344,42.798601,0 -70.807370,42.798615,0 -70.807416,42.798613,0 -70.807561,42.798595,0 -70.807665,42.798596,0 -70.807859,42.798594,0 -70.808041,42.798585,0 -70.808151,42.798579,0 -70.808215,42.798581,0 -70.808250,42.798591,0 -70.808231,42.798613,0 -70.808207,42.798626,0 -70.808137,42.798640,0 -70.808095,42.798650,0 -70.808038,42.798648,0 -70.807966,42.798674,0 -70.807805,42.798713,0 -70.807746,42.798743,0 -70.807690,42.798744,0 -70.807590,42.798766,0 -70.807499,42.798754,0 -70.807413,42.798790,0 -70.807360,42.798803,0 -70.807311,42.798800,0 -70.807279,42.798788,0 -70.807258,42.798768,0</coordinates></LinearRing></outerBoundaryIs></Polygon></Placemark>
<Placemark><name>South Jetty</name><description>area=yes; harbour=jetty; man_made=groyne; material=stone; name=South Jetty; source=MapQuest Open Aerial; source:name=http://www.nae.usace.army.mil/Media/NewsStories/tabid/16387/Article/490613/repairs-made-to-south-jetty-in-newburyport.aspx</description><styleUrl>#jetty</styleUrl><Polygon><outerBoundaryIs><LinearRing><coordinates>-70.805851,42.816052,0 -70.805986,42.816058,0 -70.806186,42.816085,0 -70.806685,42.816122,0 -70.806957,42.816122,0 -70.807231,42.816095,0 -70.807447,42.816007,0 -70.807720,42.815915,0 -70.808000,42.815821,0 -70.808153,42.815784,0 -70.808250,42.815775,0 -70.808310,42.815750,0 -70.808600,42.815635,0 -70.808786,42.815534,0 -70.808914,42.815450,0 -70.809097,42.815334,0 -70.809222,42.815242,0 -70.809370,42.815117,0 -70.809487,42.815015,0 -70.809574,42.814948,0 -70.809652,42.814897,0 -70.809819,42.814851,0 -70.809901,42.814831,0 -70.809966,42.814805,0 -70.810034,42.814771,0 -70.810081,42.814735,0 -70.810140,42.814713,0 -70.810202,42.814691,0 -70.810262,42.814684,0 -70.810348,42.814674,0 -70.810436,42.814660,0 -70.810523,42.814648,0 -70.810633,42.814630,0 -70.810676,42.814617,0 -70.810711,42.814613,0 -70.810793,42.814612,0 -70.810843,42.814608,0 -70.810907,42.814591,0 -70.810936,42.814594,0 -70.811021,42.814595,0 -70.811059,42.814598,0 -70.811156,42.814626,0 -70.811270,42.814654,0 -70.811401,42.814708,0 -70.811455,42.814733,0 -70.811493,42.814746,0 -70.811513,42.814755,0 -70.811540,42.814778,0 -70.811565,42.814806,0 -70.811582,42.814811,0 -70.811610,42.814817,0 -70.811613,42.814829,0 -70.811627,42.814854,0 -70.811646,42.814855,0 -70.811674,42.814856,0 -70.811713,42.814867,0 -70.811753,42.814887,0 -70.811783,42.814900,0 -70.811794,42.814915,0 -70.811780,42.814935,0 -70.811779,42.814955,0 -70.811765,42.814978,0 -70.811738,42.814991,0 -70.811711,42.814994,0 -70.811651,42.815005,0 -70.811614,42.815003,0 -70.811582,42.814998,0 -70.811539,42.814979,0 -70.811498,42.814962,0 -70.811438,42.814934,0 -70.811408,42.814915,0 -70.811365,42.814885,0 -70.811324,42.814868,0 -70.811316,42.814854,0 -70.811224,42.814817,0 -70.811219,42.814797,0 -70.811193,42.814794,0 -70.811134,42.814792,0 -70.811011,42.814751,0 -70.810938,42.814743,0 -70.810824,42.814720,0 -70.810732,42.814731,0 -70.810553,42.814760,0 -70.810469,42.814792,0 -70.810429,42.814796,0 -70.810343,42.814806,0 -70.810233,42.814832,0 -70.810143,42.814848,0 -70.810075,42.814866,0 -70.809987,42.814894,0 -70.809908,42.814908,0 -70.809867,42.814920,0 -70.809832,42.814947,0 -70.809795,42.814977,0 -70.809761,42.815003,0 -70.809750,42.815036,0 -70.809720,42.815064,0 -70.809633,42.815117,0 -70.809590,42.815169,0 -70.809553,42.815177,0 -70.809509,42.815199,0 -70.809395,42.815280,0 -70.809385,42.815287,0 -70.809316,42.815336,0 -70.809198,42.815418,0 -70.809098,42.815495,0 -70.808981,42.815574,0 -70.808892,42.815624,0 -70.808815,42.815662,0 -70.808728,42.815728,0 -70.808661,42.815758,0 -70.808612,42.815792,0 -70.808561,42.815822,0 -70.808481,42.815847,0 -70.808449,42.815851,0 -70.808345,42.815885,0 -70.808241,42.815922,0 -70.808161,42.815958,0 -70.808117,42.815977,0 -70.808118,42.815993,0 -70.808102,42.816003,0 -70.808082,42.815995,0 -70.808032,42.816003,0 -70.807966,42.816034,0 -70.807865,42.816094,0 -70.807750,42.816150,0 -70.807632,42.816212,0 -70.807540,42.816238,0 -70.807441,42.816275,0 -70.807322,42.816316,0 -70.807241,42.816334,0 -70.807162,42.816343,0 -70.807104,42.816348,0 -70.807023,42.816362,0 -70.806880,42.816358,0 -70.806805,42.816356,0 -70.806720,42.816344,0 -70.806645,42.816337,0 -70.806519,42.816326,0 -70.806435,42.816313,0 -70.806336,42.816303,0 -70.806221,42.816291,0 -70.806136,42.816296,0 -70.806079,42.816296,0 -70.806007,42.816294,0 -70.805935,42.816284,0 -70.805812,42.816269,0 -70.805763,42.816273,0 -70.805710,42.816268,0 -70.805595,42.816260,0 -70.805512,42.816252,0 -70.805362,42.816237,0 -70.805297,42.816235,0 -70.805222,42.816228,0 -70.805142,42.816226,0 -70.804962,42.816207,0 -70.804770,42.816185,0 -70.804700,42.816188,0 -70.804616,42.816184,0 -70.804552,42.816176,0 -70.804431,42.816165,0 -70.804310,42.816146,0 -70.804255,42.816145,0 -70.804201,42.816138,0 -70.804146,42.816119,0 -70.804119,42.816107,0 -70.804070,42.816076,0 -70.804013,42.816054,0 -70.803964,42.816016,0 -70.803959,42.815972,0 -70.803981,42.815943,0 -70.804022,42.815909,0 -70.804087,42.815897,0 -70.804167,42.815874,0 -70.804212,42.815848,0 -70.804259,42.815837,0 -70.804305,42.815846,0 -70.804369,42.815823,0 -70.804409,42.815816,0 -70.804481,42.815807,0 -70.804543,42.815801,0 -70.804574,42.815792,0 -70.804654,42.815807,0 -70.804687,42.815805,0 -70.804723,42.815797,0 -70.804736,42.815785,0 -70.804750,42.815775,0 -70.804770,42.815781,0 -70.804787,42.815799,0 -70.804819,42.815804,0 -70.804836,42.815799,0 -70.804864,42.815792,0 -70.804885,42.815795,0 -70.804917,42.815801,0 -70.804923,42.815807,0 -70.804928,42.815814,0 -70.804934,42.815822,0 -70.804962,42.815841,0 -70.804979,42.815832,0 -70.805009,42.815829,0 -70.805026,42.815835,0 -70.805039,42.815843,0 -70.805087,42.815836,0 -70.805103,42.815849,0 -70.805119,42.815876,0 -70.805129,42.815895,0 -70.805137,42.815913,0 -70.805131,42.815926,0 -70.805140,42.815935,0 -70.805153,42.815938,0 -70.805168,42.815954,0 -70.805170,42.815971,0 -70.805172,42.815991,0 -70.805209,42.816000,0 -70.805239,42.815998,0 -70.805252,42.815991,0 -70.805265,42.815993,0 -70.805273,42.815997,0 -70.805277,42.816008,0 -70.805296,42.816012,0 -70.805331,42.816011,0 -70.805346,42.816015,0 -70.805366,42.816026,0 -70.805377,42.816026,0 -70.805387,42.816022,0 -70.805396,42.816011,0 -70.805420,42.816002,0 -70.805433,42.816013,0 -70.805469,42.816015,0 -70.805521,42.816022,0 -70.805552,42.816027,0 -70.805591,42.816029,0 -70.805619,42.816032,0 -70.805637,42.816039,0 -70.805653,42.816042,0 -70.805671,42.816042,0 -70.805699,42.816033,0 -70.805851,42.816052,0</coordinates></LinearRing></outerBoundaryIs></Polygon></Placemark>
<Placemark><name>Annapolis Way Rip-Rap</name><description>area=yes; man_made=groyne; name=Annapolis Way Rip-Rap; source=Mapbox; source:name=https://scholarworks.wm.edu/cgi/viewcontent.cgi?article=2401&amp;context=vimsarticles</description><styleUrl>#jetty</styleUrl><Polygon><outerBoundaryIs><LinearRing><coordinates>-70.807821,42.795359,0 -70.807665,42.795281,0 -70.807636,42.795269,0 -70.807590,42.795267,0 -70.807569,42.795267,0 -70.807453,42.795259,0 -70.807387,42.795257,0 -70.807301,42.795247,0 -70.807223,42.795231,0 -70.807177,42.795210,0 -70.807121,42.795212,0 -70.807065,42.795198,0 -70.807013,42.795208,0 -70.806955,42.795218,0 -70.806904,42.795246,0 -70.806842,42.795275,0 -70.806807,42.795298,0 -70.806772,42.795334,0 -70.806751,42.795381,0 -70.806759,42.795434,0 -70.806799,42.795483,0 -70.806834,42.795497,0 -70.806914,42.795519,0 -70.807003,42.795499,0 -70.807064,42.795483,0 -70.807105,42.795474,0 -70.807169,42.795458,0 -70.807236,42.795456,0 -70.807293,42.795444,0 -70.807333,42.795430,0 -70.807386,42.795407,0 -70.807416,42.795375,0 -70.807448,42.795350,0 -70.807507,42.795324,0 -70.807585,42.795322,0 -70.807671,42.795352,0 -70.807821,42.795359,0</coordinates></LinearRing></outerBoundaryIs></Polygon></Placemark>
<Placemark><name>57th Street Groin</name><description>location=underground; man_made=groyne; name=57th Street Groin; source=Bing; source:location=DigitalGlobe-Premium; source:man_made=https://apps.dtic.mil/dtic/tr/fulltext/u2/a080493.pdf</description><styleUrl>#jetty</styleUrl><LineString><coordinates>-70.809178,42.812177,0 -70.808985,42.812195,0 -70.808709,42.812217,0</coordinates></LineString></Placemark>
<Placemark><name>groyne 334177052</name><description>location=underground; man_made=groyne; source=Bing; source:man_made=https://apps.dtic.mil/dtic/tr/fulltext/u2/a080493.pdf</description><styleUrl>#jetty</styleUrl><LineString><coordinates>-70.808732,42.809829,0 -70.808866,42.809802,0</coordinates></LineString></Placemark>
<Placemark><name>groyne 551978742</name><description>area=yes; layer=-3; man_made=groyne; source=Bing</description><styleUrl>#jetty</styleUrl><Polygon><outerBoundaryIs><LinearRing><coordinates>-70.825636,42.820326,0 -70.825599,42.820358,0 -70.825617,42.820407,0 -70.825864,42.820586,0 -70.826009,42.820718,0 -70.826087,42.820800,0 -70.826138,42.820828,0 -70.826183,42.820814,0 -70.826181,42.820775,0 -70.826089,42.820675,0 -70.825958,42.820547,0 -70.825843,42.820442,0 -70.825762,42.820378,0 -70.825706,42.820342,0 -70.825636,42.820326,0</coordinates></LinearRing></outerBoundaryIs></Polygon></Placemark>
<Placemark><name>groyne 551978829</name><description>area=yes; layer=-3; man_made=groyne; source=Bing</description><styleUrl>#jetty</styleUrl><Polygon><outerBoundaryIs><LinearRing><coordinates>-70.821637,42.821440,0 -70.821575,42.821432,0 -70.821546,42.821446,0 -70.821543,42.821485,0 -70.821566,42.821533,0 -70.821600,42.821603,0 -70.821653,42.821711,0 -70.821723,42.821849,0 -70.821764,42.821887,0 -70.821798,42.821890,0 -70.821801,42.821849,0 -70.821720,42.821692,0 -70.821698,42.821622,0 -70.821693,42.821607,0 -70.821660,42.821490,0 -70.821637,42.821440,0</coordinates></LinearRing></outerBoundaryIs></Polygon></Placemark>
<Placemark><name>groyne 551978864</name><description>area=yes; layer=-3; man_made=groyne; source=Bing</description><styleUrl>#jetty</styleUrl><Polygon><outerBoundaryIs><LinearRing><coordinates>-70.826966,42.820522,0 -70.826941,42.820553,0 -70.826895,42.820532,0 -70.826899,42.820553,0 -70.826961,42.820718,0 -70.826992,42.820851,0 -70.827048,42.820886,0 -70.827088,42.820874,0 -70.827107,42.820841,0 -70.827090,42.820749,0 -70.827058,42.820619,0 -70.827039,42.820559,0 -70.827007,42.820517,0 -70.826966,42.820522,0</coordinates></LinearRing></outerBoundaryIs></Polygon></Placemark>
<Placemark><name>groyne 551978874</name><description>area=yes; layer=-3; man_made=groyne; source=Bing</description><styleUrl>#jetty</styleUrl><Polygon><outerBoundaryIs><LinearRing><coordinates>-70.814773,42.822610,0 -70.814755,42.822791,0 -70.814749,42.822839,0 -70.814720,42.822864,0 -70.814691,42.822830,0 -70.814698,42.822787,0 -70.814695,42.822597,0 -70.814712,42.822557,0 -70.814744,42.822550,0 -70.814768,42.822567,0 -70.814773,42.822610,0</coordinates></LinearRing></outerBoundaryIs></Polygon></Placemark>
<Placemark><name>groyne 552004562</name><description>area=yes; layer=-3; man_made=groyne; source=Bing</description><styleUrl>#jetty</styleUrl><Polygon><outerBoundaryIs><LinearRing><coordinates>-70.827550,42.822953,0 -70.827526,42.822961,0 -70.827488,42.822963,0 -70.827448,42.822965,0 -70.827346,42.822937,0 -70.827251,42.822905,0 -70.827208,42.822882,0 -70.827173,42.822778,0 -70.827162,42.822713,0 -70.827130,42.822711,0 -70.827066,42.822709,0 -70.827052,42.822699,0 -70.827061,42.822679,0 -70.827103,42.822667,0 -70.827165,42.822660,0 -70.827197,42.822679,0 -70.827208,42.822717,0 -70.827254,42.822843,0 -70.827299,42.822864,0 -70.827392,42.822886,0 -70.827493,42.822908,0 -70.827550,42.822939,0 -70.827550,42.822953,0</coordinates></LinearRing></outerBoundaryIs></Polygon></Placemark>
<Placemark><name>groyne 553852282</name><description>area=yes; man_made=groyne; material=stone; source=DigitalGlobe-Standard</description><styleUrl>#jetty</styleUrl><Polygon><outerBoundaryIs><LinearRing><coordinates>-70.819798,42.811253,0 -70.819835,42.811273,0 -70.819875,42.811282,0 -70.819928,42.811275,0 -70.819988,42.811270,0 -70.819980,42.811245,0 -70.819961,42.811234,0 -70.819908,42.811231,0 -70.819869,42.811233,0 -70.819842,42.811224,0 -70.819812,42.811205,0 -70.819775,42.811183,0 -70.819751,42.811179,0 -70.819733,42.811191,0 -70.819745,42.811216,0 -70.819763,42.811235,0 -70.819798,42.811253,0</coordinates></LinearRing></outerBoundaryIs></Polygon></Placemark>
<Placemark><name>Low-crested Dike</name><description>area=yes; disused=yes; disused:man_made=breakwater; harbour=jetty; man_made=groyne; material=stone; name=Low-crested Dike; ruin_type=breakwater; ruins=yes; seamark:type=rock; source=Mapbox; source:name=https://web.archive.org/web/*/http://www.dtic.mil/dtic/tr/fulltext/u2/1057044.pdf; tidal=yes</description><styleUrl>#jetty</styleUrl><Polygon><outerBoundaryIs><LinearRing><coordinates>-70.826657,42.807474,0 -70.826691,42.807472,0 -70.826724,42.807471,0 -70.826736,42.807463,0 -70.826754,42.807458,0 -70.826772,42.807461,0 -70.826811,42.807451,0 -70.826796,42.807440,0 -70.826824,42.807438,0 -70.826851,42.807428,0 -70.826879,42.807427,0 -70.826893,42.807419,0 -70.826930,42.807408,0 -70.826949,42.807415,0 -70.826989,42.807405,0 -70.827050,42.807397,0 -70.827070,42.807387,0 -70.827101,42.807381,0 -70.827179,42.807370,0 -70.827314,42.807340,0 -70.827483,42.807302,0 -70.827495,42.807293,0 -70.827528,42.807279,0 -70.827541,42.807286,0 -70.827648,42.807266,0 -70.827875,42.807213,0 -70.827921,42.807205,0 -70.827926,42.807187,0 -70.827947,42.807179,0 -70.827965,42.807189,0 -70.828012,42.807178,0 -70.828036,42.807161,0 -70.828057,42.807167,0 -70.828073,42.807161,0 -70.828088,42.807152,0 -70.828113,42.807153,0 -70.828232,42.807125,0 -70.828648,42.807035,0 -70.828702,42.807062,0 -70.828373,42.807132,0 -70.827747,42.807291,0 -70.827196,42.807407,0 -70.826853,42.807494,0 -70.826225,42.807641,0 -70.825605,42.807801,0 -70.825093,42.807929,0 -70.824597,42.808042,0 -70.823914,42.808206,0 -70.823417,42.808316,0 -70.823056,42.808403,0 -70.822648,42.808511,0 -70.822751,42.808441,0 -70.823091,42.808359,0 -70.824740,42.807970,0 -70.825346,42.807820,0 -70.825800,42.807711,0 -70.826021,42.807659,0 -70.826423,42.807557,0 -70.826596,42.807498,0 -70.826657,42.807474,0</coordinates></LinearRing></outerBoundaryIs></Polygon></Placemark>
<Placemark><name>Old South Jetty</name><description>harbour=jetty; man_made=groyne; material=stone; name=Old South Jetty; source=DigitalGlobe-Premium</description><styleUrl>#jetty</styleUrl><Polygon><outerBoundaryIs><LinearRing><coordinates>-70.811774,42.813542,0 -70.811761,42.813564,0 -70.811722,42.813594,0 -70.811656,42.813638,0 -70.811602,42.813665,0 -70.811528,42.813700,0 -70.811495,42.813733,0 -70.811389,42.813809,0 -70.811291,42.813882,0 -70.811178,42.813966,0 -70.811093,42.814010,0 -70.811046,42.814038,0 -70.811011,42.814065,0 -70.810991,42.814073,0 -70.810980,42.814071,0 -70.810979,42.814063,0 -70.810994,42.814040,0 -70.811059,42.813981,0 -70.811145,42.813917,0 -70.811215,42.813874,0 -70.811371,42.813762,0 -70.811424,42.813716,0 -70.811503,42.813656,0 -70.811589,42.813593,0 -70.811661,42.813531,0 -70.811692,42.813519,0 -70.811723,42.813517,0 -70.811756,42.813525,0 -70.811774,42.813542,0</coordinates></LinearRing></outerBoundaryIs></Polygon></Placemark>
<Placemark><name>groyne 559972362</name><description>area=yes; disused=yes; disused:man_made=breakwater; harbour=jetty; man_made=groyne; material=stone; ruin_type=breakwater; ruins=yes; seamark:type=rock; source=Mapbox; tidal=yes</description><styleUrl>#jetty</styleUrl><Polygon><outerBoundaryIs><LinearRing><coordinates>-70.837549,42.807996,0 -70.837466,42.807973,0 -70.837414,42.807951,0 -70.837412,42.807939,0 -70.837524,42.807938,0 -70.837930,42.808021,0 -70.838854,42.808234,0 -70.839868,42.808459,0 -70.840618,42.808627,0 -70.841385,42.808798,0 -70.842450,42.809041,0 -70.843095,42.809191,0 -70.843705,42.809332,0 -70.844032,42.809408,0 -70.844245,42.809461,0 -70.844241,42.809494,0 -70.844202,42.809512,0 -70.843749,42.809400,0 -70.843296,42.809285,0 -70.842802,42.809155,0 -70.842188,42.809011,0 -70.841505,42.808852,0 -70.841296,42.808806,0 -70.840709,42.808687,0 -70.840241,42.808583,0 -70.839966,42.808529,0 -70.839368,42.808390,0 -70.838272,42.808147,0 -70.837766,42.808036,0 -70.837549,42.807996,0</coordinates></LinearRing></outerBoundaryIs></Polygon></Placemark>
<Placemark><name>groyne 564423794</name><description>area=yes; disused=yes; disused:man_made=breakwater; harbour=jetty; image=https://www.facebook.com/HistoricPlumIsland/photos/a.662849110543416/662852497209744/?type=3&amp;theater; man_made=groyne; material=stone; ruin_type=breakwater; ruins=yes; seamark:rock:water_level=covers; seamark:type=rock; source=DigitalGlobe-Premium; source:start_date=https://historicipswich.org/plum-island-the-northern-end/; start_date=1883; tidal=yes</description><styleUrl>#jetty</styleUrl><Polygon><outerBoundaryIs><LinearRing><coordinates>-70.819882,42.812961,0 -70.819903,42.812933,0 -70.819928,42.812899,0 -70.819965,42.812851,0 -70.819985,42.812813,0 -70.820027,42.812754,0 -70.820050,42.812719,0 -70.820056,42.812687,0 -70.820083,42.812668,0 -70.820094,42.812651,0 -70.820087,42.812633,0 -70.820106,42.812599,0 -70.820137,42.812581,0 -70.820144,42.812555,0 -70.820173,42.812515,0 -70.820202,42.812461,0 -70.820184,42.812466,0 -70.820107,42.812567,0 -70.820069,42.812624,0 -70.820051,42.812640,0 -70.820005,42.812691,0 -70.819950,42.812741,0 -70.819877,42.812856,0 -70.819847,42.812904,0 -70.819815,42.812957,0 -70.819775,42.813007,0 -70.819763,42.813041,0 -70.819782,42.813057,0 -70.819815,42.813047,0 -70.819827,42.813022,0 -70.819852,42.812997,0 -70.819882,42.812961,0</coordinates></LinearRing></outerBoundaryIs></Polygon></Placemark>
<Placemark><name>North Jetty</name><description>harbour=Jetty; man_made=groyne; material=stone; name=North Jetty; source=MapQuest Open Aerial</description><styleUrl>#jetty</styleUrl><Polygon><outerBoundaryIs><LinearRing><coordinates>-70.803724,42.818822,0 -70.803688,42.818822,0 -70.803658,42.818828,0 -70.803631,42.818837,0 -70.803596,42.818833,0 -70.803543,42.818841,0 -70.803527,42.818858,0 -70.803510,42.818879,0 -70.803507,42.818905,0 -70.803508,42.818925,0 -70.803510,42.818973,0 -70.803549,42.819017,0 -70.803588,42.819029,0 -70.803625,42.819046,0 -70.803666,42.819072,0 -70.803706,42.819073,0 -70.803734,42.819071,0 -70.803769,42.819081,0 -70.803799,42.819075,0 -70.803833,42.819060,0 -70.803966,42.819074,0 -70.804061,42.819069,0 -70.804126,42.819064,0 -70.804167,42.819073,0 -70.804215,42.819083,0 -70.804262,42.819084,0 -70.804282,42.819086,0 -70.804313,42.819087,0 -70.804338,42.819099,0 -70.804363,42.819098,0 -70.804378,42.819092,0 -70.804422,42.819082,0 -70.804449,42.819089,0 -70.804478,42.819091,0 -70.804520,42.819098,0 -70.804552,42.819104,0 -70.804584,42.819117,0 -70.804635,42.819102,0 -70.804743,42.819106,0 -70.804766,42.819113,0 -70.804789,42.819122,0 -70.804806,42.819135,0 -70.804836,42.819146,0 -70.804896,42.819160,0 -70.804944,42.819177,0 -70.805004,42.819176,0 -70.805038,42.819167,0 -70.805085,42.819173,0 -70.805127,42.819178,0 -70.805161,42.819174,0 -70.805202,42.819174,0 -70.805229,42.819174,0 -70.805290,42.819175,0 -70.805346,42.819195,0 -70.805363,42.819196,0 -70.805416,42.819198,0 -70.805461,42.819183,0 -70.805491,42.819191,0 -70.805524,42.819203,0 -70.805587,42.819209,0 -70.805619,42.819206,0 -70.805640,42.819220,0 -70.805671,42.819215,0 -70.805711,42.819210,0 -70.805780,42.819213,0 -70.805822,42.819230,0 -70.805852,42.819239,0 -70.805917,42.819247,0 -70.805943,42.819254,0 -70.805969,42.819250,0 -70.805989,42.819238,0 -70.806016,42.819249,0 -70.806035,42.819256,0 -70.806084,42.819257,0 -70.806100,42.819266,0 -70.806118,42.819276,0 -70.806148,42.819279,0 -70.806164,42.819270,0 -70.806178,42.819260,0 -70.806204,42.819262,0 -70.806227,42.819270,0 -70.806248,42.819279,0 -70.806293,42.819278,0 -70.806332,42.819278,0 -70.806365,42.819276,0 -70.806385,42.819283,0 -70.806421,42.819302,0 -70.806459,42.819292,0 -70.806482,42.819285,0 -70.806507,42.819276,0 -70.806529,42.819265,0 -70.806565,42.819283,0 -70.806603,42.819292,0 -70.806629,42.819293,0 -70.806655,42.819293,0 -70.806685,42.819277,0 -70.806711,42.819283,0 -70.806743,42.819298,0 -70.806769,42.819294,0 -70.806822,42.819296,0 -70.806860,42.819297,0 -70.806905,42.819307,0 -70.806937,42.819315,0 -70.806952,42.819303,0 -70.806965,42.819295,0 -70.806991,42.819286,0 -70.807024,42.819281,0 -70.807045,42.819280,0 -70.807069,42.819283,0 -70.807097,42.819290,0 -70.807128,42.819288,0 -70.807169,42.819284,0 -70.807203,42.819290,0 -70.807225,42.819294,0 -70.807268,42.819292,0 -70.807300,42.819301,0 -70.807312,42.819324,0 -70.807331,42.819321,0 -70.807351,42.819312,0 -70.807382,42.819303,0 -70.807413,42.819306,0 -70.807450,42.819311,0 -70.807472,42.819317,0 -70.807498,42.819322,0 -70.807514,42.819326,0 -70.807541,42.819319,0 -70.807571,42.819333,0 -70.807597,42.819321,0 -70.807619,42.819320,0 -70.807650,42.819330,0 -70.807669,42.819328,0 -70.807693,42.819321,0 -70.807725,42.819327,0 -70.807748,42.819330,0 -70.807780,42.819324,0 -70.807801,42.819323,0 -70.807828,42.819319,0 -70.807846,42.819328,0 -70.807861,42.819348,0 -70.807904,42.819345,0 -70.807926,42.819340,0 -70.807946,42.819340,0 -70.807971,42.819345,0 -70.807988,42.819355,0 -70.808005,42.819364,0 -70.808023,42.819363,0 -70.808034,42.819370,0 -70.808060,42.819374,0 -70.808093,42.819371,0 -70.808139,42.819390,0 -70.808233,42.819405,0 -70.808267,42.819429,0 -70.808281,42.819435,0 -70.808316,42.819428,0 -70.808346,42.819442,0 -70.808368,42.819442,0 -70.808390,42.819454,0 -70.808409,42.819466,0 -70.808429,42.819477,0 -70.808447,42.819487,0 -70.808455,42.819504,0 -70.808468,42.819513,0 -70.808486,42.819502,0 -70.808500,42.819502,0 -70.808510,42.819518,0 -70.808522,42.819525,0 -70.808532,42.819520,0 -70.808553,42.819520,0 -70.808565,42.819540,0 -70.808594,42.819554,0 -70.808585,42.819570,0 -70.808624,42.819573,0 -70.808643,42.819571,0 -70.808668,42.819579,0 -70.808699,42.819588,0 -70.808707,42.819614,0 -70.808730,42.819627,0 -70.808742,42.819629,0 -70.808768,42.819648,0 -70.808774,42.819672,0 -70.808790,42.819669,0 -70.808795,42.819662,0 -70.808805,42.819663,0 -70.808819,42.819675,0 -70.808810,42.819691,0 -70.808826,42.819709,0 -70.808853,42.819721,0 -70.808881,42.819724,0 -70.808900,42.819724,0 -70.808919,42.819738,0 -70.808921,42.819757,0 -70.808946,42.819755,0 -70.808974,42.819772,0 -70.808993,42.819784,0 -70.809000,42.819803,0 -70.809014,42.819810,0 -70.809039,42.819807,0 -70.809075,42.819830,0 -70.809089,42.819848,0 -70.809112,42.819864,0 -70.809136,42.819876,0 -70.809156,42.819895,0 -70.809169,42.819907,0 -70.809177,42.819917,0 -70.809200,42.819927,0 -70.809229,42.819939,0 -70.809241,42.819954,0 -70.809269,42.819973,0 -70.809286,42.819969,0 -70.809297,42.819975,0 -70.809318,42.819988,0 -70.809303,42.820005,0 -70.809315,42.820017,0 -70.809332,42.820030,0 -70.809354,42.820027,0 -70.809375,42.820021,0 -70.809395,42.820026,0 -70.809394,42.820038,0 -70.809411,42.820054,0 -70.809428,42.820054,0 -70.809429,42.820079,0 -70.809446,42.820083,0 -70.809469,42.820069,0 -70.809485,42.820073,0 -70.809483,42.820094,0 -70.809510,42.820099,0 -70.809536,42.820119,0 -70.809556,42.820126,0 -70.809580,42.820140,0 -70.809594,42.820152,0 -70.809597,42.820174,0 -70.809628,42.820183,0 -70.809652,42.820201,0 -70.809672,42.820211,0 -70.809687,42.820224,0 -70.809714,42.820228,0 -70.809726,42.820225,0 -70.809737,42.820245,0 -70.809759,42.820266,0 -70.809772,42.820287,0 -70.809791,42.820299,0 -70.809800,42.820315,0 -70.809823,42.820327,0 -70.809850,42.820339,0 -70.809876,42.820354,0 -70.809900,42.820369,0 -70.809914,42.820381,0 -70.809934,42.820395,0 -70.809947,42.820403,0 -70.809964,42.820417,0 -70.809961,42.820440,0 -70.809973,42.820445,0 -70.810020,42.820449,0 -70.810035,42.820472,0 -70.810074,42.820498,0 -70.810081,42.820509,0 -70.810103,42.820517,0 -70.810121,42.820536,0 -70.810146,42.820543,0 -70.810169,42.820551,0 -70.810176,42.820560,0 -70.810205,42.820579,0 -70.810224,42.820602,0 -70.810232,42.820613,0 -70.810249,42.820622,0 -70.810285,42.820633,0 -70.810306,42.820633,0 -70.810294,42.820650,0 -70.810319,42.820670,0 -70.810341,42.820681,0 -70.810372,42.820706,0 -70.810398,42.820715,0 -70.810418,42.820727,0 -70.810442,42.820743,0 -70.810457,42.820750,0 -70.810484,42.820754,0 -70.810514,42.820775,0 -70.810538,42.820794,0 -70.810561,42.820809,0 -70.810584,42.820820,0 -70.810611,42.820835,0 -70.810630,42.820844,0 -70.810655,42.820856,0 -70.810679,42.820871,0 -70.810697,42.820889,0 -70.810715,42.820903,0 -70.810740,42.820916,0 -70.810780,42.820942,0 -70.810832,42.820957,0 -70.810851,42.820981,0 -70.810879,42.820998,0 -70.810901,42.821015,0 -70.810915,42.821032,0 -70.810937,42.821045,0 -70.811001,42.821092,0 -70.811036,42.821119,0 -70.811060,42.821129,0 -70.811085,42.821140,0 -70.811109,42.821152,0 -70.811142,42.821167,0 -70.811183,42.821194,0 -70.811198,42.821210,0 -70.811218,42.821222,0 -70.811243,42.821234,0 -70.811256,42.821235,0 -70.811271,42.821240,0 -70.811294,42.821250,0 -70.811315,42.821263,0 -70.811338,42.821279,0 -70.811359,42.821300,0 -70.811372,42.821310,0 -70.811390,42.821325,0 -70.811406,42.821339,0 -70.811587,42.821450,0 -70.811620,42.821464,0 -70.811646,42.821478,0 -70.811679,42.821500,0 -70.811707,42.821518,0 -70.811744,42.821546,0 -70.811771,42.821565,0 -70.811798,42.821589,0 -70.811828,42.821606,0 -70.811852,42.821634,0 -70.811885,42.821652,0 -70.811924,42.821683,0 -70.811962,42.821708,0 -70.812018,42.821738,0 -70.812053,42.821754,0 -70.812102,42.821781,0 -70.812140,42.821798,0 -70.812174,42.821812,0 -70.812200,42.821832,0 -70.812242,42.821866,0 -70.812269,42.821887,0 -70.812325,42.821919,0 -70.812356,42.821936,0 -70.812382,42.821960,0 -70.812435,42.821996,0 -70.812467,42.822015,0 -70.812507,42.822041,0 -70.812541,42.822068,0 -70.812605,42.822105,0 -70.812625,42.822120,0 -70.812670,42.822145,0 -70.812705,42.822163,0 -70.812749,42.822188,0 -70.812790,42.822221,0 -70.812836,42.822248,0 -70.812866,42.822270,0 -70.812996,42.822347,0 -70.813023,42.822365,0 -70.813044,42.822381,0 -70.813069,42.822400,0 -70.813098,42.822423,0 -70.813119,42.822452,0 -70.813167,42.822474,0 -70.813204,42.822488,0 -70.813225,42.822514,0 -70.813248,42.822527,0 -70.813274,42.822531,0 -70.813297,42.822530,0 -70.813350,42.822506,0 -70.813635,42.822544,0 -70.813647,42.822538,0 -70.813635,42.822534,0 -70.813543,42.822517,0 -70.813503,42.822502,0 -70.813381,42.822482,0 -70.813346,42.822462,0 -70.813329,42.822451,0 -70.813318,42.822440,0 -70.813310,42.822428,0 -70.813294,42.822419,0 -70.813286,42.822415,0 -70.813242,42.822397,0 -70.813220,42.822383,0 -70.813207,42.822374,0 -70.813195,42.822361,0 -70.813188,42.822333,0 -70.813121,42.822255,0 -70.813081,42.822218,0 -70.813051,42.822202,0 -70.813032,42.822190,0 -70.813003,42.822172,0 -70.812991,42.822154,0 -70.812976,42.822131,0 -70.812964,42.822121,0 -70.812943,42.822106,0 -70.812920,42.822089,0 -70.812898,42.822076,0 -70.812869,42.822063,0 -70.812838,42.822058,0 -70.812815,42.822047,0 -70.812806,42.822033,0 -70.812779,42.821990,0 -70.812752,42.821973,0 -70.812732,42.821963,0 -70.812698,42.821951,0 -70.812656,42.821931,0 -70.812630,42.821916,0 -70.812610,42.821904,0 -70.812580,42.821882,0 -70.812552,42.821867,0 -70.812525,42.821857,0 -70.812489,42.821837,0 -70.812410,42.821773,0 -70.812391,42.821756,0 -70.812377,42.821742,0 -70.812342,42.821721,0 -70.812330,42.821715,0 -70.812292,42.821700,0 -70.812263,42.821687,0 -70.812226,42.821665,0 -70.812201,42.821645,0 -70.812171,42.821618,0 -70.812149,42.821594,0 -70.812123,42.821582,0 -70.812090,42.821568,0 -70.812070,42.821557,0 -70.812033,42.821531,0 -70.812005,42.821515,0 -70.811998,42.821509,0 -70.811976,42.821497,0 -70.811947,42.821483,0 -70.811934,42.821476,0 -70.811918,42.821466,0 -70.811900,42.821455,0 -70.811882,42.821435,0 -70.811862,42.821421,0 -70.811844,42.821409,0 -70.811821,42.821395,0 -70.811786,42.821387,0 -70.811766,42.821374,0 -70.811737,42.821345,0 -70.811729,42.821335,0 -70.811717,42.821317,0 -70.811702,42.821305,0 -70.811678,42.821293,0 -70.811652,42.821287,0 -70.811632,42.821287,0 -70.811607,42.821284,0 -70.811592,42.821278,0 -70.811576,42.821266,0 -70.811553,42.821250,0 -70.811526,42.821224,0 -70.811514,42.821209,0 -70.811506,42.821200,0 -70.811486,42.821184,0 -70.811471,42.821171,0 -70.811444,42.821160,0 -70.811426,42.821144,0 -70.811412,42.821128,0 -70.811353,42.821094,0 -70.811327,42.821073,0 -70.811320,42.821064,0 -70.811302,42.821053,0 -70.811288,42.821038,0 -70.811278,42.821023,0 -70.811267,42.821011,0 -70.811250,42.820996,0 -70.811238,42.820987,0 -70.811225,42.820979,0 -70.811178,42.820960,0 -70.811164,42.820947,0 -70.811148,42.820936,0 -70.811127,42.820923,0 -70.811107,42.820911,0 -70.811089,42.820898,0 -70.811065,42.820880,0 -70.811046,42.820870,0 -70.811015,42.820849,0 -70.810985,42.820827,0 -70.810963,42.820807,0 -70.810942,42.820794,0 -70.810901,42.820772,0 -70.810883,42.820765,0 -70.810834,42.820732,0 -70.810818,42.820716,0 -70.810793,42.820697,0 -70.810743,42.820663,0 -70.810711,42.820645,0 -70.810675,42.820622,0 -70.810638,42.820594,0 -70.810596,42.820575,0 -70.810554,42.820555,0 -70.810519,42.820543,0 -70.810500,42.820538,0 -70.810484,42.820525,0 -70.810475,42.820503,0 -70.810456,42.820496,0 -70.810433,42.820481,0 -70.810400,42.820464,0 -70.810382,42.820455,0 -70.810357,42.820439,0 -70.810338,42.820424,0 -70.810317,42.820407,0 -70.810307,42.820396,0 -70.810288,42.820380,0 -70.810267,42.820362,0 -70.810239,42.820340,0 -70.810216,42.820326,0 -70.810192,42.820308,0 -70.810179,42.820297,0 -70.810158,42.820278,0 -70.810137,42.820253,0 -70.810122,42.820237,0 -70.810085,42.820209,0 -70.810062,42.820194,0 -70.810039,42.820187,0 -70.810019,42.820180,0 -70.809999,42.820169,0 -70.809965,42.820150,0 -70.809949,42.820133,0 -70.809929,42.820125,0 -70.809905,42.820118,0 -70.809894,42.820111,0 -70.809881,42.820104,0 -70.809865,42.820088,0 -70.809854,42.820076,0 -70.809831,42.820058,0 -70.809827,42.820055,0 -70.809806,42.820045,0 -70.809795,42.820038,0 -70.809779,42.820027,0 -70.809771,42.820018,0 -70.809755,42.820004,0 -70.809743,42.819994,0 -70.809727,42.819978,0 -70.809709,42.819963,0 -70.809678,42.819946,0 -70.809658,42.819934,0 -70.809630,42.819914,0 -70.809617,42.819899,0 -70.809607,42.819890,0 -70.809586,42.819875,0 -70.809567,42.819853,0 -70.809538,42.819840,0 -70.809516,42.819837,0 -70.809485,42.819816,0 -70.809453,42.819793,0 -70.809434,42.819777,0 -70.809411,42.819763,0 -70.809391,42.819747,0 -70.809372,42.819737,0 -70.809326,42.819713,0 -70.809303,42.819690,0 -70.809279,42.819670,0 -70.809218,42.819631,0 -70.809197,42.819617,0 -70.809171,42.819600,0 -70.809155,42.819590,0 -70.809135,42.819575,0 -70.809094,42.819550,0 -70.809065,42.819533,0 -70.809028,42.819514,0 -70.808994,42.819493,0 -70.808969,42.819469,0 -70.808938,42.819459,0 -70.808911,42.819441,0 -70.808878,42.819420,0 -70.808848,42.819420,0 -70.808815,42.819396,0 -70.808746,42.819369,0 -70.808705,42.819344,0 -70.808677,42.819335,0 -70.808650,42.819315,0 -70.808619,42.819294,0 -70.808566,42.819274,0 -70.808533,42.819260,0 -70.808513,42.819250,0 -70.808479,42.819240,0 -70.808454,42.819232,0 -70.808418,42.819220,0 -70.808390,42.819208,0 -70.808356,42.819193,0 -70.808329,42.819187,0 -70.808304,42.819183,0 -70.808277,42.819180,0 -70.808250,42.819182,0 -70.808223,42.819178,0 -70.808176,42.819163,0 -70.808140,42.819150,0 -70.808098,42.819144,0 -70.808073,42.819144,0 -70.808034,42.819140,0 -70.808002,42.819137,0 -70.807975,42.819134,0 -70.807950,42.819134,0 -70.807837,42.819124,0 -70.807781,42.819117,0 -70.807698,42.819113,0 -70.807638,42.819105,0 -70.807590,42.819107,0 -70.807557,42.819102,0 -70.807491,42.819095,0 -70.807469,42.819097,0 -70.807451,42.819100,0 -70.807421,42.819102,0 -70.807390,42.819108,0 -70.807322,42.819101,0 -70.807262,42.819098,0 -70.807193,42.819101,0 -70.807154,42.819094,0 -70.807128,42.819095,0 -70.807060,42.819083,0 -70.807011,42.819081,0 -70.806979,42.819086,0 -70.806950,42.819086,0 -70.806898,42.819073,0 -70.806866,42.819073,0 -70.806839,42.819077,0 -70.806806,42.819080,0 -70.806751,42.819067,0 -70.806661,42.819057,0 -70.806572,42.819042,0 -70.806511,42.819043,0 -70.806419,42.819035,0 -70.806388,42.819023,0 -70.806336,42.819035,0 -70.806257,42.819024,0 -70.806185,42.819008,0 -70.806119,42.819005,0 -70.806067,42.819002,0 -70.806028,42.819003,0 -70.805887,42.818977,0 -70.805782,42.818979,0 -70.805719,42.818975,0 -70.805663,42.818958,0 -70.805545,42.818961,0 -70.805489,42.818965,0 -70.805376,42.818949,0 -70.805305,42.818933,0 -70.805237,42.818924,0 -70.805158,42.818921,0 -70.805026,42.818906,0 -70.804971,42.818893,0 -70.804868,42.818883,0 -70.804797,42.818887,0 -70.804765,42.818879,0 -70.804715,42.818878,0 -70.804677,42.818880,0 -70.804639,42.818888,0 -70.804609,42.818891,0 -70.804558,42.818886,0 -70.804388,42.818866,0 -70.804293,42.818863,0 -70.804252,42.818863,0 -70.804196,42.818856,0 -70.804164,42.818855,0 -70.804099,42.818864,0 -70.804038,42.818856,0 -70.803920,42.818852,0 -70.803851,42.818840,0 -70.803822,42.818831,0 -70.803777,42.818822,0 -70.803774,42.818821,0 -70.803724,42.818822,0</coordinates></LinearRing></outerBoundaryIs></Polygon></Placemark>
<Placemark><name>North Jetty Spur</name><description>harbour=Jetty; man_made=groyne; material=stone; name=North Jetty Spur; source=MapQuest Open Aerial; source:name=https://web.archive.org/web/20181103014204/http://www.dtic.mil/dtic/tr/fulltext/u2/1057044.pdf</description><styleUrl>#jetty</styleUrl><Polygon><outerBoundaryIs><LinearRing><coordinates>-70.811587,42.821450,0 -70.811406,42.821339,0 -70.811402,42.821359,0 -70.811408,42.821374,0 -70.811387,42.821391,0 -70.811390,42.821410,0 -70.811364,42.821417,0 -70.811343,42.821430,0 -70.811337,42.821453,0 -70.811314,42.821457,0 -70.811296,42.821475,0 -70.811286,42.821488,0 -70.811271,42.821501,0 -70.811256,42.821515,0 -70.811241,42.821528,0 -70.811227,42.821541,0 -70.811208,42.821557,0 -70.811188,42.821572,0 -70.811163,42.821587,0 -70.811141,42.821602,0 -70.811126,42.821616,0 -70.811113,42.821635,0 -70.811095,42.821653,0 -70.811082,42.821670,0 -70.811079,42.821688,0 -70.811078,42.821710,0 -70.811083,42.821730,0 -70.811097,42.821743,0 -70.811129,42.821758,0 -70.811161,42.821762,0 -70.811211,42.821764,0 -70.811249,42.821750,0 -70.811262,42.821745,0 -70.811293,42.821731,0 -70.811306,42.821721,0 -70.811325,42.821708,0 -70.811351,42.821686,0 -70.811375,42.821670,0 -70.811399,42.821650,0 -70.811426,42.821628,0 -70.811443,42.821611,0 -70.811466,42.821577,0 -70.811482,42.821557,0 -70.811483,42.821539,0 -70.811487,42.821533,0 -70.811508,42.821505,0 -70.811528,42.821478,0 -70.811542,42.821459,0 -70.811561,42.821449,0 -70.811587,42.821450,0</coordinates></LinearRing></outerBoundaryIs></Polygon></Placemark>
<Placemark><name>Annapolis Way Groin</name><description>area=yes; man_made=groyne; name=Annapolis Way Groin; source=Mapbox; source:name=https://scholarworks.wm.edu/cgi/viewcontent.cgi?article=2401&amp;context=vimsarticles</description><styleUrl>#jetty</styleUrl><Polygon><outerBoundaryIs><LinearRing><coordinates>-70.807821,42.795359,0 -70.807671,42.795352,0 -70.807692,42.795403,0 -70.807703,42.795468,0 -70.807714,42.795536,0 -70.807738,42.795621,0 -70.807781,42.795761,0 -70.807842,42.795881,0 -70.807901,42.795962,0 -70.807920,42.796027,0 -70.807947,42.796064,0 -70.807955,42.796099,0 -70.807998,42.796170,0 -70.808014,42.796211,0 -70.808033,42.796257,0 -70.808033,42.796282,0 -70.808014,42.796300,0 -70.808025,42.796336,0 -70.808033,42.796353,0 -70.808025,42.796428,0 -70.808025,42.796456,0 -70.808046,42.796520,0 -70.808084,42.796586,0 -70.808116,42.796593,0 -70.808132,42.796564,0 -70.808127,42.796515,0 -70.808138,42.796458,0 -70.808156,42.796420,0 -70.808159,42.796395,0 -70.808161,42.796318,0 -70.808159,42.796265,0 -70.808154,42.796204,0 -70.808132,42.796176,0 -70.808089,42.796131,0 -70.808044,42.796074,0 -70.808022,42.796025,0 -70.807990,42.795946,0 -70.807979,42.795871,0 -70.807963,42.795759,0 -70.807982,42.795690,0 -70.807936,42.795668,0 -70.807899,42.795645,0 -70.807877,42.795568,0 -70.807896,42.795535,0 -70.807821,42.795359,0</coordinates></LinearRing></outerBoundaryIs></Polygon></Placemark>
<Placemark><name>Fordham Way Rip-Rap</name><description>area=yes; man_made=groyne; name=Fordham Way Rip-Rap; source=Mapbox</description><styleUrl>#jetty</styleUrl><Polygon><outerBoundaryIs><LinearRing><coordinates>-70.807488,42.794027,0 -70.807518,42.794098,0 -70.807523,42.794210,0 -70.807569,42.794346,0 -70.807598,42.794413,0 -70.807649,42.794478,0 -70.807668,42.794615,0 -70.807708,42.794739,0 -70.807698,42.794804,0 -70.807703,42.794860,0 -70.807708,42.794909,0 -70.807724,42.794942,0 -70.807716,42.795035,0 -70.807724,42.795110,0 -70.807733,42.795174,0 -70.807722,42.795224,0 -70.807679,42.795241,0 -70.807649,42.795222,0 -70.807620,42.795198,0 -70.807652,42.795096,0 -70.807631,42.795060,0 -70.807631,42.795025,0 -70.807609,42.794986,0 -70.807633,42.794972,0 -70.807625,42.794905,0 -70.807614,42.794844,0 -70.807598,42.794753,0 -70.807590,42.794686,0 -70.807556,42.794623,0 -70.807526,42.794531,0 -70.807502,42.794430,0 -70.807453,42.794362,0 -70.807429,42.794238,0 -70.807370,42.794169,0 -70.807346,42.794088,0 -70.807326,42.794027,0 -70.807488,42.794027,0</coordinates></LinearRing></outerBoundaryIs></Polygon></Placemark>
</Folder></Document></kml>